STARLINK-32705          
1 62479U 24254T   26068.18665754  .00028904  00000+0  10549-2 0  9992
2 62479  43.0028  11.6338 0001402 251.0494 109.0206 15.27607131 67500
KUIPER-00266            
1 67789U 26030AB  26067.91293632  .00029701  00000+0  98220-3 0  9996
2 67789  51.8807 223.5904 0022313  72.5291 287.8129 15.30874235  4964
